OBJECT_NAME,OBJECT_ID,EPOCH,MEAN_MOTION,ECCENTRICITY,INCLINATION,RA_OF_ASC_NODE,ARG_OF_PERICENTER,MEAN_ANOMALY,EPHEMERIS_TYPE,CLASSIFICATION_TYPE,NORAD_CAT_ID,ELEMENT_SET_NO,REV_AT_EPOCH,BSTAR,MEAN_MOTION_DOT,MEAN_MOTION_DDOT
CUBEBUG-2 (LO-74),2013-066AA,2026-07-13T09:17:00.180960,14.93959550,.00558891,97.8910,143.4812,301.4913,58.0852,0,U,39440,999,68090,.18138212E-3,.1928E-4,0
FUNCUBE-1 (AO-73),2013-066AE,2026-07-13T10:29:12.641568,15.09805136,.00380208,97.8287,166.4387,113.3139,247.2098,0,U,39444,999,68362,.22112613E-3,.3565E-4,0
UWE-3,2013-066AG,2026-07-13T09:58:18.421536,14.97191819,.00474939,97.8702,150.6713,230.6805,129.0202,0,U,39446,999,68150,.16195396E-3,.1852E-4,0
UNISAT-6,2014-033C,2026-07-13T10:05:57.317856,14.88362420,.00443241,97.7906,346.6769,343.7133,16.2657,0,U,40012,999,65006,.1319415E-3,.1186E-4,0
DUCHIFAT-1,2014-033M,2026-07-13T15:23:35.707200,15.70712064,.00021782,98.0437,257.6444,255.1227,104.9792,0,U,40021,999,65989,.74874058E-3,.93289E-3,0
QB50P1,2014-033R,2026-07-13T12:13:07.720032,15.18650045,.00103485,98.0963,207.5077,130.1673,230.0467,0,U,40025,999,65702,.23878477E-3,.4875E-4,0
LILACSAT-2,2015-049K,2026-07-13T15:28:11.584128,15.52321407,.00083222,97.4627,232.5027,146.1143,214.0642,0,U,40908,999,59985,.19716854E-3,.11916E-3,0
FOX-1A (AO-85),2015-058D,2026-07-13T09:02:14.152416,14.91081725,.01322082,64.7723,197.5870,46.4986,314.7024,0,U,40967,999,11747,.15941732E-3,.169E-4,0
CAS-2T & KS-1Q,2016-066G,2026-07-13T05:05:23.360352,14.44767960,.03423502,98.3814,269.6505,50.7667,312.3386,0,U,41847,999,50855,.94681853E-4,.617E-5,0
RADFXSAT (FOX-1B),2017-073E,2026-07-13T14:21:04.318560,15.13047327,.0148173,97.4670,61.2749,237.0562,121.6348,0,U,43017,999,46938,.17078232E-3,.3877E-4,0
DIWATA-2B,2018-084H,2026-07-13T13:51:12.856896,15.00559878,.00129229,98.1217,31.9412,89.3965,270.8738,0,U,43678,999,42017,.10502862E-3,.1261E-4,0
ES'HAIL 2,2018-090A,2026-07-13T13:35:15.132768,1.00270005,.00021441,0.0034,108.4151,50.9273,1.6930,0,U,43700,999,2794,0,.14E-5,0
FOX-1CLIFF (AO-95),2018-099N,2026-07-13T03:48:48.256704,15.27248870,.00071002,97.4377,254.3164,248.3656,111.6827,0,U,43770,999,41718,.288771E-3,.7642E-4,0
ITASAT,2018-099AE,2026-07-13T15:09:02.630880,15.19370289,.00108081,97.4017,245.6182,256.6062,103.3968,0,U,43786,999,41692,.1877459E-3,.3908E-4,0
JY1SAT (JO-97),2018-099AX,2026-07-13T15:26:44.314080,15.34486685,.00067188,97.4122,257.5822,162.7169,197.4304,0,U,43803,999,41768,.3104522E-3,.103E-3,0
UWE-4,2018-111E,2026-07-12T18:23:27.129408,15.47716069,.00057472,97.5844,123.3656,204.5147,155.5830,0,U,43880,999,41473,.53441815E-3,.27634E-3,0
TIANYAN 01,2019-093C,2026-07-13T15:11:17.280096,14.86561637,.00137277,97.7530,266.2190,6.8711,353.2691,0,U,44881,999,35534,.11428726E-3,.96E-5,0
RS-44 & BREEZE-KM R/B,2019-096E,2026-07-13T10:19:34.099392,12.79748942,.02185508,82.5240,322.2668,83.0989,279.4919,0,U,44909,999,30570,-.4619573E-4,.1E-7,0
SALSAT,2020-068K,2026-07-13T12:03:32.996736,15.30157505,.00089942,97.8854,199.1769,199.0888,161.0016,0,U,46495,999,31938,.15262836E-3,.4373E-4,0
XW-3 (CAS-9),2021-131B,2026-07-13T13:44:25.103328,14.41381145,.00047015,98.4990,286.8200,35.0283,325.1215,0,U,50466,999,23891,.10046352E-3,.281E-5,0
GREENCUBE (IO-117),2022-080E,2026-07-12T17:00:29.177856,6.42583319,.00090302,70.1415,289.3709,284.1311,75.8345,0,U,53109,999,9370,0,-.3E-7,0
UMKA 1 (RS40S),2023-091G,2026-07-13T12:59:28.983552,15.21109946,.00132111,97.5041,253.1397,34.9922,325.2179,0,U,57172,999,16801,.14652987E-3,.3195E-4,0
CUBESX-HSE 3 (RS42S),2023-091N,2026-07-13T13:39:55.176768,15.31858551,.00098287,97.5085,260.4995,7.8474,352.2919,0,U,57178,999,16846,.2346015E-3,.7146E-4,0
MONITOR-3 (RS58S),2023-091Q,2026-07-13T14:06:20.467296,15.28353249,.00111677,97.5075,258.2344,15.4090,344.7488,0,U,57180,999,16832,.22867777E-3,.6248E-4,0
MONITOR-4 (RS57S),2023-091S,2026-07-13T10:25:31.076544,15.28437681,.00111864,97.5069,258.0524,16.2412,343.9184,0,U,57182,999,16830,.22405402E-3,.6136E-4,0
MONITOR-2 (RS39S),2023-091U,2026-07-13T14:18:25.985376,15.19145496,.00115586,97.5062,252.7099,29.2994,330.8886,0,U,57184,999,16796,.12660847E-3,.2595E-4,0
SVYATOBOR 1 (RS60S),2023-091X,2026-07-13T14:26:33.710784,15.27046491,.00088971,97.5081,258.5702,10.4021,349.7400,0,U,57187,999,16834,.19642711E-3,.5142E-4,0
VIZARD-METEO (RS38S),2023-091Z,2026-07-13T12:34:54.393888,15.36840572,.00058011,97.5086,264.5504,346.5106,13.5982,0,U,57189,999,16873,.26973969E-3,.9635E-4,0
POLYTECH-UNIVERSE 3 (RS46S),2023-091AB,2026-07-13T14:52:25.575744,15.19357787,.00162007,97.5037,252.2375,42.8463,317.4031,0,U,57191,999,16796,.13213776E-3,.2732E-4,0
UTMN 2 (RS27S),2023-091AP,2026-07-13T13:44:45.650112,15.32676695,.00068807,97.5081,262.1687,356.2496,3.8693,0,U,57203,999,16858,.22499526E-3,.7023E-4,0
