CUBEBUG-2 (LO-74)
1 39440U 13066AA  26194.38680765  .00001928  00000-0  18138-3 0  9995
2 39440  97.8910 143.4812 0055889 301.4913  58.0852 14.93959550680906
FUNCUBE-1 (AO-73)
1 39444U 13066AE  26194.43695187  .00003565  00000-0  22113-3 0  9996
2 39444  97.8287 166.4387 0038021 113.3139 247.2098 15.09805136683622
UWE-3
1 39446U 13066AG  26194.41549099  .00001852  00000-0  16195-3 0  9996
2 39446  97.8702 150.6713 0047494 230.6805 129.0202 14.97191819681502
UNISAT-6
1 40012U 14033C   26194.42080229  .00001186  00000-0  13194-3 0  9994
2 40012  97.7906 346.6769 0044324 343.7133  16.2657 14.88362420650061
DUCHIFAT-1
1 40021U 14033M   26194.64138550  .00093289  00000-0  74874-3 0  9996
2 40021  98.0437 257.6444 0002178 255.1227 104.9792 15.70712064659896
LILACSAT-2
1 40908U 15049K   26194.64457852  .00011916  00000-0  19717-3 0  9999
2 40908  97.4627 232.5027 0008322 146.1143 214.0642 15.52321407599859
CAS-2T & KS-1Q
1 41847U 16066G   26194.21207593  .00000617  00000-0  94682-4 0  9991
2 41847  98.3814 269.6505 0342350  50.7667 312.3386 14.44767960508557
FOX-1B (AO-91)
1 43017U 17073E   26194.59796665  .00003877  00000-0  17078-3 0  9999
2 43017  97.4670  61.2749 0148173 237.0562 121.6348 15.13047327469386
FUNCUBE-3 (EO-79)/QB50P1
1 40025U 14033R   26194.50911713  .00004875  00000-0  23878-3 0  9996
2 40025  98.0963 207.5077 0010348 130.1673 230.0467 15.18650045657020
FOX-1A (AO-85)
1 40967U 15058D   26194.37655269  .00001690  00000-0  15942-3 0  9990
2 40967  64.7723 197.5870 0132208  46.4986 314.7024 14.91081725117476
DIWATA-2B (PO-101)
1 43678U 18084H   26194.57723214  .00001261  00000-0  10503-3 0  9994
2 43678  98.1217  31.9412 0012923  89.3965 270.8738 15.00559878420172
ESHAIL-2
1 43700U 18090A   26194.56614737  .00000140  00000-0  00000-0 0  9998
2 43700   0.0034 108.4151 0002144  50.9273   1.6930  1.00270005 27946
ITASAT-1
1 43786U 18099AE  26194.63128045  .00003908  00000-0  18775-3 0  9997
2 43786  97.4017 245.6182 0010808 256.6062 103.3968 15.19370289416927
FOX-1CLIFF (AO-95)
1 43770U 18099N   26194.15889186  .00007642  00000-0  28877-3 0  9990
2 43770  97.4377 254.3164 0007100 248.3656 111.6827 15.27248870417188
JY1SAT (JO-97)
1 43803U 18099AX  26194.64356845  .00010300  00000-0  31045-3 0  9998
2 43803  97.4122 257.5822 0006719 162.7169 197.4304 15.34486685417685
UWE-4
1 43880U 18111E   26193.76628622  .00027634  00000-0  53442-3 0  9998
2 43880  97.5844 123.3656 0005747 204.5147 155.5830 15.47716069414736
CAS-6 (TO-108)
1 44881U 19093C   26194.63283889  .00000960  00000-0  11429-3 0  9991
2 44881  97.7530 266.2190 0013728   6.8711 353.2691 14.86561637355344
DOSAAF-85 (RS-44)
1 44909U 19096E   26194.43025578  .00000001  00000-0 -46196-4 0  9999
2 44909  82.5240 322.2668 0218551  83.0989 279.4919 12.79748942305706
SALSAT (TUBSAT 22)
1 46495U 20068K   26194.50246524  .00004373  00000-0  15263-3 0  9991
2 46495  97.8854 199.1769 0008994 199.0888 161.0016 15.30157505319387
CAMSAT XW-3 (CAS-9)
1 50466U 21131B   26194.57251277  .00000281  00000-0  10046-3 0  9992
2 50466  98.4990 286.8200 0004702  35.0283 325.1215 14.41381145238916
ROBUSTA 1F (MTCUBE-2)
1 53109U 22080E   26193.70867104 -.00000003  00000-0  00000-0 0  9998
2 53109  70.1415 289.3709 0009030 284.1311  75.8345  6.42583319 93700
UMKA-1 (RS40S)
1 57172U 23091G   26194.54130768  .00003195  00000-0  14653-3 0  9993
2 57172  97.5041 253.1397 0013211  34.9922 325.2179 15.21109946168010
CUBESX-HSE-3 (RS42S)
1 57178U 23091N   26194.56938862  .00007146  00000-0  23460-3 0  9998
2 57178  97.5085 260.4995 0009829   7.8474 352.2919 15.31858551168465
MONITOR-3 (RS58S)
1 57180U 23091Q   26194.58773689  .00006248  00000-0  22868-3 0  9990
2 57180  97.5075 258.2344 0011168  15.4090 344.7488 15.28353249168320
MONITOR-4 (RS57S)
1 57182U 23091S   26194.43438746  .00006136  00000-0  22405-3 0  9991
2 57182  97.5069 258.0524 0011186  16.2412 343.9184 15.28437681168305
MONITOR-2 (RS39S)
1 57184U 23091U   26194.59613409  .00002595  00000-0  12661-3 0  9999
2 57184  97.5062 252.7099 0011559  29.2994 330.8886 15.19145496167966
SVYATOBOR-1 (RS60S)
1 57187U 23091X   26194.60177906  .00005142  00000-0  19643-3 0  9999
2 57187  97.5081 258.5702 0008897  10.4021 349.7400 15.27046491168347
VIZARD-METEO (RS38S)
1 57189U 23091Z   26194.52424067  .00009635  00000-0  26974-3 0  9991
2 57189  97.5086 264.5504 0005801 346.5106  13.5982 15.36840572168736
UTMN-2 (RS27S)
1 57203U 23091AP  26194.57275058  .00007023  00000-0  22500-3 0  9997
2 57203  97.5081 262.1687 0006881 356.2496   3.8693 15.32676695168586
POLYTECH UNIVERSE-3 (RS46S)
1 57191U 23091AB  26194.61974046  .00002732  00000-0  13214-3 0  9995
2 57191  97.5037 252.2375 0016201  42.8463 317.4031 15.19357787167960
